$$SOE
2461295.500000000, A.D. 2026-Sep-12 00:00:00.0000, -3.305686594336229E+08, 2.223947339170104E+08, 1.835972086806904E+07,
2461302.500000000, A.D. 2026-Sep-19 00:00:00.0000, -3.362881607658255E+08, 2.138868907516785E+08, 1.749217526891553E+07,
2461309.500000000, A.D. 2026-Sep-26 00:00:00.0000, -3.417506063064845E+08, 2.052156854917779E+08, 1.661124985446146E+07,
2461316.500000000, A.D. 2026-Oct-03 00:00:00.0000, -3.469519150954369E+08, 1.963878014143547E+08, 1.571762374403329E+07,
2461323.500000000, A.D. 2026-Oct-10 00:00:00.0000, -3.518881293939829E+08, 1.874099914872468E+08, 1.481198162411480E+07,
2461330.500000000, A.D. 2026-Oct-17 00:00:00.0000, -3.565554141529018E+08, 1.782890792959536E+08, 1.389501383683324E+07,
2461337.500000000, A.D. 2026-Oct-24 00:00:00.0000, -3.609500566989080E+08, 1.690319599946394E+08, 1.296741647090387E+07,
2461344.500000000, A.D. 2026-Oct-31 00:00:00.0000, -3.650684665461574E+08, 1.596456012058820E+08, 1.202989143977292E+07,
2461351.500000000, A.D. 2026-Nov-07 00:00:00.0000, -3.689071749990668E+08, 1.501370439345037E+08, 1.108314652120598E+07,
2461358.500000000, A.D. 2026-Nov-14 00:00:00.0000, -3.724628343508522E+08, 1.405134043737145E+08, 1.012789541174822E+07,
2461365.500000000, A.D. 2026-Nov-21 00:00:00.0000, -3.757322184961787E+08, 1.307818772757302E+08, 9.164858017242223E+06,
2461372.500000000, A.D. 2026-Nov-28 00:00:00.0000, -3.787122259652190E+08, 1.209497378705727E+08, 8.194760824317344E+06,
2461379.500000000, A.D. 2026-Dec-05 00:00:00.0000, -3.813998817660291E+08, 1.110243416701900E+08, 7.218336966606744E+06,
2461386.500000000, A.D. 2026-Dec-12 00:00:00.0000, -3.837923378727449E+08, 1.010131252585347E+08, 6.236326224354751E+06,
2461393.500000000, A.D. 2026-Dec-19 00:00:00.0000, -3.858868742541569E+08, 9.092360806123100E+07, 5.249475130236033E+06,
2461400.500000000, A.D. 2026-Dec-26 00:00:00.0000, -3.876809005960996E+08, 8.076339421679352E+07, 4.258537122441284E+06,
2461407.500000000, A.D. 2027-Jan-02 00:00:00.0000, -3.891719584514990E+08, 7.054017434965180E+07, 3.264272703066986E+06,
2461414.500000000, A.D. 2027-Jan-09 00:00:00.0000, -3.903577237097279E+08, 6.026172725560176E+07, 2.267449591620281E+06,
2461421.500000000, A.D. 2027-Jan-16 00:00:00.0000, -3.912360093580229E+08, 4.993592149851087E+07, 1.268842869925916E+06,
2461428.500000000, A.D. 2027-Jan-23 00:00:00.0000, -3.918047684957035E+08, 3.957071686791490E+07, 2.692351098075807E+05,
2461435.500000000, A.D. 2027-Jan-30 00:00:00.0000, -3.920620974186912E+08, 2.917416563675515E+07, -7.305835386418048E+05,
2461442.500000000, A.D. 2027-Feb-06 00:00:00.0000, -3.920062383552203E+08, 1.875441394285981E+07, -1.729815310417704E+06,
2461449.500000000, A.D. 2027-Feb-13 00:00:00.0000, -3.916355823218470E+08, 8.319704494574614E+06, -2.727654700015665E+06,
2461456.500000000, A.D. 2027-Feb-20 00:00:00.0000, -3.909486744776831E+08, -2.121620210371432E+06, -3.723288096698526E+06,
2461463.500000000, A.D. 2027-Feb-27 00:00:00.0000, -3.899442205992391E+08, -1.256111738344967E+07, -4.715893573823706E+06,
2461470.500000000, A.D. 2027-Mar-06 00:00:00.0000, -3.886210916721053E+08, -2.299024425187752E+07, -5.704640954254654E+06,
2461477.500000000, A.D. 2027-Mar-13 00:00:00.0000, -3.869783282061979E+08, -3.340035713858169E+07, -6.688691839533810E+06,
2461484.500000000, A.D. 2027-Mar-20 00:00:00.0000, -3.850151454098523E+08, -4.378271017010665E+07, -7.667199569706107E+06,
2461491.500000000, A.D. 2027-Mar-27 00:00:00.0000, -3.827309390287358E+08, -5.412845418290015E+07, -8.639309179756843E+06,
2461498.500000000, A.D. 2027-Apr-03 00:00:00.0000, -3.801252916533911E+08, -6.442863589779162E+07, -9.604157377598658E+06,
2461505.500000000, A.D. 2027-Apr-10 00:00:00.0000, -3.771979794387911E+08, -7.467419736420551E+07, -1.056087254960825E+07,
2461512.500000000, A.D. 2027-Apr-17 00:00:00.0000, -3.739489792180867E+08, -8.485597571642572E+07, -1.150857479925336E+07,
2461519.500000000, A.D. 2027-Apr-24 00:00:00.0000, -3.703784759365458E+08, -9.496470333491440E+07, -1.244637603373653E+07,
2461526.500000000, A.D. 2027-May-01 00:00:00.0000, -3.664868701122264E+08, -1.049910084175244E+08, -1.337338012674087E+07,
2461533.500000000, A.D. 2027-May-08 00:00:00.0000, -3.622747850219303E+08, -1.149254152458669E+08, -1.428868312745682E+07,
2461540.500000000, A.D. 2027-May-15 00:00:00.0000, -3.577430751134766E+08, -1.247583432283960E+08, -1.519137330408988E+07,
2461547.500000000, A.D. 2027-May-22 00:00:00.0000, -3.528928372113855E+08, -1.344801073496659E+08, -1.608053109410256E+07,
2461554.500000000, A.D. 2027-May-29 00:00:00.0000, -3.477254211638986E+08, -1.440809215339217E+08, -1.695522939325412E+07,
2461561.500000000, A.D. 2027-Jun-05 00:00:00.0000, -3.422424390466481E+08, -1.535509018306858E+08, -1.781453401259276E+07,
2461568.500000000, A.D. 2027-Jun-12 00:00:00.0000, -3.364457749237304E+08, -1.628800690317029E+08, -1.865750408757573E+07,
2461575.500000000, A.D. 2027-Jun-19 00:00:00.0000, -3.303375954869168E+08, -1.720583517006558E+08, -1.948319248936549E+07,
2461582.500000000, A.D. 2027-Jun-26 00:00:00.0000, -3.239203612830653E+08, -1.810755899278400E+08, -2.029064628995176E+07,
2461589.500000000, A.D. 2027-Jul-03 00:00:00.0000, -3.171968383856441E+08, -1.899215398541210E+08, -2.107890729740949E+07,
2461596.500000000, A.D. 2027-Jul-10 00:00:00.0000, -3.101701104573600E+08, -1.985858790093332E+08, -2.184701266875218E+07,
2461603.500000000, A.D. 2027-Jul-17 00:00:00.0000, -3.028435911462467E+08, -2.070582125600611E+08, -2.259399561172877E+07,
2461610.500000000, A.D. 2027-Jul-24 00:00:00.0000, -2.952210366325686E+08, -2.153280805881973E+08, -2.331888620008111E+07,
2461617.500000000, A.D. 2027-Jul-31 00:00:00.0000, -2.873065578837908E+08, -2.233849662254513E+08, -2.402071232597496E+07,
2461624.500000000, A.D. 2027-Aug-07 00:00:00.0000, -2.791046327809283E+08, -2.312183035541284E+08, -2.469850068240201E+07,
2461631.500000000, A.D. 2027-Aug-14 00:00:00.0000, -2.706201203726043E+08, -2.388174855910404E+08, -2.535127759069391E+07,
2461638.500000000, A.D. 2027-Aug-21 00:00:00.0000, -2.618582765877159E+08, -2.461718757855895E+08, -2.597807001083748E+07,
2461645.500000000, A.D. 2027-Aug-28 00:00:00.0000, -2.528247679203266E+08, -2.532708218977050E+08, -2.657790695739046E+07,
2461652.500000000, A.D. 2027-Sep-04 00:00:00.0000, -2.435256842047890E+08, -2.601036698201295E+08, -2.714982101425844E+07,
2461659.500000000, A.D. 2027-Sep-11 00:00:00.0000, -2.339675518024847E+08, -2.666597780708013E+08, -2.769284988005300E+07,
2461666.500000000, A.D. 2027-Sep-18 00:00:00.0000, -2.241573469824041E+08, -2.729285336692194E+08, -2.820603801498728E+07,
2461673.500000000, A.D. 2027-Sep-25 00:00:00.0000, -2.141025091730111E+08, -2.788993695381464E+08, -2.868843842254074E+07,
2461680.500000000, A.D. 2027-Oct-02 00:00:00.0000, -2.038109539092079E+08, -2.845617834644650E+08, -2.913911457633960E+07,
2461687.500000000, A.D. 2027-Oct-09 00:00:00.0000, -1.932910853418400E+08, -2.899053586778802E+08, -2.955714249935465E+07,
2461694.500000000, A.D. 2027-Oct-16 00:00:00.0000, -1.825518081232950E+08, -2.949197861464002E+08, -2.994161300844683E+07,
2461701.500000000, A.D. 2027-Oct-23 00:00:00.0000, -1.716025382696228E+08, -2.995948886293512E+08, -3.029163414958796E+07,
2461708.500000000, A.D. 2027-Oct-30 00:00:00.0000, -1.604532124689774E+08, -3.039206459073130E+08, -3.060633380866130E+07,
2461715.500000000, A.D. 2027-Nov-06 00:00:00.0000, -1.491142968329517E+08, -3.078872200864699E+08, -3.088486229979979E+07,
2461722.500000000, A.D. 2027-Nov-13 00:00:00.0000, -1.375967969020216E+08, -3.114849830718150E+08, -3.112639492007139E+07,
2461729.500000000, A.D. 2027-Nov-20 00:00:00.0000, -1.259122658235631E+08, -3.147045484017861E+08, -3.133013491584194E+07,
2461736.500000000, A.D. 2027-Nov-27 00:00:00.0000, -1.140728088987357E+08, -3.175368044689649E+08, -3.149531676511918E+07,
2461743.500000000, A.D. 2027-Dec-04 00:00:00.0000, -1.020910863249969E+08, -3.199729481788546E+08, -3.162120951057167E+07,
2461750.500000000, A.D. 2027-Dec-11 00:00:00.0000, -8.998031447670005E+07, -3.220045199535086E+08, -3.170712016363579E+07,
2461757.500000000, A.D. 2027-Dec-18 00:00:00.0000, -7.775426523195842E+07, -3.236234403387671E+08, -3.175239722233483E+07,
2461764.500000000, A.D. 2027-Dec-25 00:00:00.0000, -6.542726297041228E+07, -3.248220481127144E+08, -3.175643430442117E+07,
2461771.500000000, A.D. 2028-Jan-01 00:00:00.0000, -5.301417897356827E+07, -3.255931397522080E+08, -3.171867388399370E+07,
$$EOE